#dP2023  4  7 18  0  0.00000000      96 __u+U ITR00 EXT  IAC
## 2256 496800.00000000   900.00000000 60041 0.7500000000000
+  118   C06C07C08C09C10C11C12C13C14C16C19C20C21C22C23C24C25
+        C26C27C28C29C30C32C33C34C35C36C37C38C39C40C41C42C43
+        C44C45C46E01E02E03E04E05E07E08E09E10E11E12E13E14E15
+        E18E19E21E24E25E26E27E30E31E33E34E36G01G03G04G05G06
+        G07G08G09G10G11G12G13G14G15G16G17G18G19G20G21G22G23
+        G24G25G26G27G28G29G30G31G32J02J03J04R01R02R03R04R05
+        R07R08R09R11R12R13R14R15R16R17R18R19R20R22R24R25  0
++        10  9 10 10 11  8  8 10  9  9  8  7  8  8  9  7  8
++         8  9  8  7  7  9 10  8  9  8 10  9 11  9  9  9  8
++         9  7  9  7  8  8  7  8  7  7  7  7  8  7  7  7  7
++         7  7  8  7  8  7  6  8  7  8  8  8  8  7  7  7  7
++         8  7  8  7  7  6  7  8  7  7  7  8  7  8  8  8  8
++         8  7  7  7  8  8  7  8  7 10 10  8  7  7  8  8  8
++         9  9  9  9  7  9  8  7  7  8  7  8  9  8  7  8  0
%c M  cc GPS ccc cccc cccc cccc cccc ccccc ccccc ccccc ccccc
%c cc cc ccc ccc cccc cccc cccc cccc ccccc ccccc ccccc ccccc
%f  0.0000000  0.000000000  0.00000000000  0.000000000000000
%f  0.0000000  0.000000000  0.00000000000  0.000000000000000
%i    0    0    0    0      0      0      0      0         0
%i    0    0    0    0      0      0      0      0         0
/* IAC                                ULTRA-RAPID PREDICTION
/* S/V CLOCKS ARE ALIGNED TO GNSS TIME                      
/* G:C1WC2W R:C1PC2P E:C1XC5X C:C2IC6I J:C1CC2S             
/* PCV:IGS20_2247 OL/AL:FES2004  NONE     YN ORB:CoN CLK:CoN
*  2023 04 08 14 15  0.00000000
PC06 -17063.193746  37669.110582  -8906.220304   -197.258470
PC07  -3876.840118  33123.991703 -25667.203170   -140.017500
PC08 -12085.674795  19567.088413  35312.658616    508.116388
PC09 -11288.505275  36818.639761 -17380.739213    790.283525
PC10   3594.531965  36145.218725 -20703.229640    -28.346463
PC11  14440.816888   5383.463095  23326.688609      6.149964
PC12   2923.774034  21981.674999  16973.384948    558.395296
PC13  -4166.024750  21984.516170  35882.972099    248.182520
PC14  21246.948084  13363.566582 -12107.533136     96.445905
PC16 -19168.817521  37228.022740  -5915.825740    115.401687
PC19 -20023.787367  -4399.027268  18975.940695   -899.836810
PC20 -19639.521442 -19202.554201   5052.172454    636.762190
PC21   7238.794853  23552.871073  13095.615716   -909.493445
PC22  -8907.792440  13662.816275  22645.283819   -545.839850
PC23  20759.615358 -12858.648965  13510.200182   -901.868771
PC24  17942.769471  10822.336642 -18457.343448   -195.924774
PC25  27653.371903  -2840.189563  -2580.179633    102.675585
PC26   -217.377225  16461.274338 -22546.167888   -103.401362
PC27   3056.167772 -25847.637491 -10065.757460    122.596512
PC28  14304.218857 -23084.254448   6419.975514     90.189409
PC29 -17658.966556   6249.509162 -20695.384176    104.397371
PC30 -10463.187039 -14671.696770 -21310.931816      0.498177
PC32  -7425.791581 -23498.531002 -13086.767338   -582.909833
PC33  20066.875399   4344.604685 -18878.830240   -872.658325
PC34  11211.860147  13507.426573  21683.879490    144.450594
PC35 -13936.795394  23086.455437  -7280.847543    649.794937
PC36 -27660.031732   1691.801075   3280.507440   -513.609358
PC37   2163.496501 -16559.229771  22369.247735   -792.046788
PC38 -20889.837117  20059.269816  30633.943232     70.398221
PC39 -20615.371893  36919.736032    338.123554     -2.482206
PC40  -6748.140995  29339.199115 -29438.848899    -19.792117
PC41   9355.984613 -13194.888262 -22682.063019   -824.818845
PC42  19141.781057  19940.725546  -3676.243406   -746.855243
PC43  17658.866453  -5241.967944  20942.034219     15.703606
PC44  -2234.963238  26048.530414   9794.250974     69.605952
PC45 -20409.684568  12961.925110 -13919.728016    -82.492975
PC46 -19288.783965  -9866.536202  17563.059935    -45.569827
PE01 -19842.496297 -18007.987788  12564.556885     -4.935203
PE02  20219.081915  17882.700482 -12178.726363     31.141202
PE03  12078.823579  23664.410513 -13033.405274   -667.201125
PE04 -17268.865593  -4770.282300  23574.945693    -96.138330
PE05   -360.794036  29092.225004   5452.984033    -78.717219
PE07  12482.086862 -17248.979409 -20555.579033    -36.063011
PE08  17127.016487   5020.782761 -23605.636063    -64.135866
PE09 -12432.966762  17056.909385  20754.350577   -897.761922
PE10 -25500.480370  11763.467887  -9370.445531   -525.001005
PE11 -23234.786061  18327.314577   1067.818115   1536.586132
PE12 -23728.095312   3837.308298 -17296.670917   -490.582508
PE13  23519.615228 -17957.482737   -257.765496    -18.384489
PE14 -12861.822667  18547.518789 -15620.615750    191.374310
PE15  23529.638066  -3600.506619  17588.719245    -13.147851
PE18   2665.991234 -29913.731875   3013.516358   -189.203203
PE19 -10574.865368 -25426.911061  10864.392967  -2814.150305
PE21  -1883.659707 -18185.819948  23271.499704   -522.208765
PE24 -19269.736253   7522.051453 -21182.279322    -33.034534
PE25   1521.628303  18103.916906 -23371.094149   -602.899018
PE26   8943.820920 -21563.360996 -18193.120628     69.267700
PE27  18619.374313  -8065.855407  21551.309774    -20.110163
PE30  27947.040450   7227.391772   6573.688191    -76.499748
PE31 -27928.019734  -6690.361590  -7158.873141   -520.755141
PE33  -9668.215861 -12747.551292 -24902.173137   -446.854736
PE34   9823.457650  12630.731557  24895.688891    -39.158340
PE36  -9751.053556  21621.720572  17719.782094    -38.329949
PG01   8473.906054 -18747.448378 -16916.835990    195.104695
PG03  -2258.448061 -16641.134273 -20732.065654   -333.772940
PG04    422.007334 -26424.017111  -1938.018565     11.936542
PG05 -14693.182467   8843.472630  20143.388278   -122.619643
PG06 -21479.225900   2000.891733 -15497.663638    586.033899
PG07  -6732.829821 -14227.600313  21810.415879    205.888230
PG08   7421.056851 -21415.453881  13450.161046   -116.793790
PG09  -7948.127718 -23963.794761   8102.634371   -184.256773
PG10  24199.876997  11330.289083   -538.853164    -31.965200
PG11 -23530.997672  11970.153102  -2733.426376   -155.818334
PG12  -1449.444435  16180.098386 -21311.013772   -361.435763
PG13 -12921.625140  15165.737741  17287.090506    502.722330
PG14 -22865.724027 -13544.040629   1816.554911     19.010280
PG15  -4671.108284  22603.820785  12449.795355     28.795684
PG16  17935.850486  -4488.988982  18929.414959   -510.269310
PG17 -12708.985389 -13452.809265 -18584.088312    709.590359
PG18   9716.150699  11449.410247  21915.054767   -215.212038
PG19 -14844.004986  -3413.803314 -22006.407981    300.917224
PG20 -22132.694192   3975.781829  14014.913795    440.205110
PG21  14993.405965 -19496.133098  -8269.397309    154.270353
PG22  14972.698208   -745.468163 -21474.558733    460.419598
PG23  18300.352715  16191.094683  10597.101852     15.492250
PG24 -10684.199661  20713.200374 -12693.327675   -143.858379
PG25  10466.043488  18145.276779 -16802.514981    434.043606
PG26  24915.319779   2874.524427   9126.370717    241.841923
PG27  12910.386129 -11310.604558  19903.347392     63.390414
PG28  20662.861107   -628.798305 -16700.073858     61.264859
PG29   3127.693787  25863.222755   4882.085114   -594.617038
PG30 -17550.109666  -5490.327743  19356.735607   -523.348083
PG31  23737.537828  -5967.396258 -11032.688644   -213.508249
PG32  14597.061428  10154.442078 -19615.894270   -446.025504
PJ02 -26686.519544  16067.693425 -23854.319487     -1.454494
PJ03 -27083.898758  31762.007780  -1478.614678      1.988181
PJ04 -26612.072387  25897.603401  26007.137703     94.164765
PR01  13915.372987   4296.698482 -20930.130026     26.290866
PR02   4257.810131 -13417.485718 -21206.212958    -22.988164
PR03  -7339.873924 -22747.451372  -8778.122972     75.654661
PR04 -14408.366104 -19380.584599   8233.393518    182.526907
PR05 -13738.787283  -5485.646390  20791.395223    110.634281
PR07   7752.001015  22940.268732   8141.092632     53.389373
PR08  14553.417035  19251.137145  -8240.843897    -70.259316
PR09 -16055.372324   8671.080293 -17846.393052    113.590965
PR11  18579.329681   7806.888612 -15620.359799    -32.337918
PR12  25399.279412   -401.568604   2437.413696     26.280038
PR13  17625.897921  -7697.817666  16738.273471    -33.772033
PR14  -2322.531073 -11137.421721  22839.004467     24.515943
PR15 -19395.418244  -7678.668023  14698.594810     89.919439
PR16 -25439.356175    403.584272  -2049.840344     13.288426
PR17   5698.214791 -20673.570815 -13833.547501    619.397396
PR18  -5927.560596  -9690.800297 -22820.575337     75.514583
PR19 -14247.085270   4471.986807 -20684.678363   -228.309226
PR20 -15801.038755  19645.781687  -4039.023638    -90.765181
PR22   6513.228548   9417.226188  22819.349924     78.423765
PR24  15021.090739 -20341.599302   3398.085430    160.298312
PR25  -6627.567679  20539.340443  13588.686853     60.367425
EOF
